LEGION 1                
1 59625U 24081A   26189.93204615  .00002029  00000+0  10661-3 0  9997
2 59625  97.5010 267.5582 0007778 295.8566  64.1864 15.16816803120838
LEGION 2                
1 59626U 24081B   26189.96234164  .00002435  00000+0  12731-3 0  9994
2 59626  97.5010 267.6851 0009900 258.0118 102.0005 15.16795588120848
LEGION 3                
1 60452U 24146A   26189.74554068  .00001989  00000+0  11647-3 0  9997
2 60452  45.0018 274.9587 0008746 300.5893  59.4123 15.15629295105298
LEGION 4                
1 60453U 24146B   26189.87757413  .00002818  00000+0  15675-3 0  9998
2 60453  45.0026   6.1229 0011487  72.2685 287.9447 15.16208592104160
LEGION 5                
1 62900U 25025A   26189.48343296  .00001880  00000+0  10959-3 0  9999
2 62900  45.0001 187.2116 0008558 269.0811  90.9087 15.16046257 77721
LEGION 6                
1 62901U 25025B   26189.94234263  .00002471  00000+0  14123-3 0  9998
2 62901  45.0009  93.8780 0010703 244.8829 115.0939 15.15662056 78933
